{
  "type": "FeatureCollection",
  "features": [
    {
      "type": "Feature",
      "properties": {
        "norad_id": 58647,
        "name": "TIANMU-1 13",
        "group": "weather",
        "lat": -56.960306241158655,
        "lon": 20.988398650331558,
        "alt_km": 496.4814579341755,
        "timestamp": "2025-12-15T22:44:28.563949+00:00",
        "meta_object_name": "TIANMU-1 13",
        "meta_object_id": "2023-205C",
        "meta_epoch": "2025-12-15T08:49:00.551136",
        "meta_mean_motion": 15.24561203,
        "meta_eccentricity": 0.00060629,
        "meta_inclination": 97.3623,
        "meta_ra_of_asc_node": 8.9514,
        "meta_arg_of_pericenter": 255.2985,
        "meta_mean_anomaly": 104.7581,
        "meta_ephemeris_type": 0,
        "meta_classification_type": "U",
        "meta_norad_cat_id": 58647,
        "meta_element_set_no": 999,
        "meta_rev_at_epoch": 10947,
        "meta_bstar": 0.00019467455,
        "meta_mean_motion_dot": 4.725e-05,
        "meta_mean_motion_ddot": 0,
        "tle_line1": "1 58647U 23205C   25349.36736749  .00004725  00000+0  19467-3 0  9997",
        "tle_line2": "2 58647  97.3623   8.9514 0006062 255.2985 104.7581 15.24561203109475"
      },
      "geometry": {
        "type": "Point",
        "coordinates": [
          20.988398650331558,
          -56.960306241158655
        ]
      }
    },
    {
      "type": "Feature",
      "properties": {
        "norad_id": 58648,
        "name": "TIANMU-1 14",
        "group": "weather",
        "lat": 32.81964382568983,
        "lon": 4.088238900424509,
        "alt_km": 493.50613701465045,
        "timestamp": "2025-12-15T22:44:28.563965+00:00",
        "meta_object_name": "TIANMU-1 14",
        "meta_object_id": "2023-205D",
        "meta_epoch": "2025-12-15T08:25:08.736384",
        "meta_mean_motion": 15.24544637,
        "meta_eccentricity": 0.00068384,
        "meta_inclination": 97.3556,
        "meta_ra_of_asc_node": 8.2814,
        "meta_arg_of_pericenter": 261.2392,
        "meta_mean_anomaly": 98.8071,
        "meta_ephemeris_type": 0,
        "meta_classification_type": "U",
        "meta_norad_cat_id": 58648,
        "meta_element_set_no": 999,
        "meta_rev_at_epoch": 10947,
        "meta_bstar": 0.0002069913,
        "meta_mean_motion_dot": 5.027e-05,
        "meta_mean_motion_ddot": 0,
        "tle_line1": "1 58648U 23205D   25349.35079556  .00005027  00000+0  20699-3 0  9998",
        "tle_line2": "2 58648  97.3556   8.2814 0006838 261.2392  98.8071 15.24544637109476"
      },
      "geometry": {
        "type": "Point",
        "coordinates": [
          4.088238900424509,
          32.81964382568983
        ]
      }
    },
    {
      "type": "Feature",
      "properties": {
        "norad_id": 58660,
        "name": "TIANMU-1 19",
        "group": "weather",
        "lat": -32.99191719552088,
        "lon": 105.84375308063655,
        "alt_km": 488.1627823130757,
        "timestamp": "2025-12-15T22:44:28.563984+00:00",
        "meta_object_name": "TIANMU-1 19",
        "meta_object_id": "2023-208A",
        "meta_epoch": "2025-12-15T07:10:08.053248",
        "meta_mean_motion": 15.27901283,
        "meta_eccentricity": 0.00041978,
        "meta_inclination": 97.4386,
        "meta_ra_of_asc_node": 100.3305,
        "meta_arg_of_pericenter": 241.5083,
        "meta_mean_anomaly": 118.5734,
        "meta_ephemeris_type": 0,
        "meta_classification_type": "U",
        "meta_norad_cat_id": 58660,
        "meta_element_set_no": 999,
        "meta_rev_at_epoch": 10921,
        "meta_bstar": 0.00024834793,
        "meta_mean_motion_dot": 6.69e-05,
        "meta_mean_motion_ddot": 0,
        "tle_line1": "1 58660U 23208A   25349.29870432  .00006690  00000+0  24835-3 0  9993",
        "tle_line2": "2 58660  97.4386 100.3305 0004197 241.5083 118.5734 15.27901283109210"
      },
      "geometry": {
        "type": "Point",
        "coordinates": [
          105.84375308063655,
          -32.99191719552088
        ]
      }
    },
    {
      "type": "Feature",
      "properties": {
        "norad_id": 58661,
        "name": "TIANMU-1 20",
        "group": "weather",
        "lat": 53.99905321804323,
        "lon": 91.07809359043239,
        "alt_km": 477.5925030219232,
        "timestamp": "2025-12-15T22:44:28.564021+00:00",
        "meta_object_name": "TIANMU-1 20",
        "meta_object_id": "2023-208B",
        "meta_epoch": "2025-12-15T08:22:03.758304",
        "meta_mean_motion": 15.29092744,
        "meta_eccentricity": 0.00063573,
        "meta_inclination": 97.4323,
        "meta_ra_of_asc_node": 100.8304,
        "meta_arg_of_pericenter": 254.9892,
        "meta_mean_anomaly": 105.0645,
        "meta_ephemeris_type": 0,
        "meta_classification_type": "U",
        "meta_norad_cat_id": 58661,
        "meta_element_set_no": 999,
        "meta_rev_at_epoch": 10929,
        "meta_bstar": 0.0002507377,
        "meta_mean_motion_dot": 7.009e-05,
        "meta_mean_motion_ddot": 0,
        "tle_line1": "1 58661U 23208B   25349.34865461  .00007009  00000+0  25074-3 0  9997",
        "tle_line2": "2 58661  97.4323 100.8304 0006357 254.9892 105.0645 15.29092744109297"
      },
      "geometry": {
        "type": "Point",
        "coordinates": [
          91.07809359043239,
          53.99905321804323
        ]
      }
    },
    {
      "type": "Feature",
      "properties": {
        "norad_id": 58662,
        "name": "TIANMU-1 21",
        "group": "weather",
        "lat": 82.39111233520065,
        "lon": 25.42888280481333,
        "alt_km": 467.29675484647305,
        "timestamp": "2025-12-15T22:44:28.564041+00:00",
        "meta_object_name": "TIANMU-1 21",
        "meta_object_id": "2023-208C",
        "meta_epoch": "2025-12-15T08:14:40.151328",
        "meta_mean_motion": 15.31611937,
        "meta_eccentricity": 0.00059409,
        "meta_inclination": 97.4372,
        "meta_ra_of_asc_node": 102.7455,
        "meta_arg_of_pericenter": 249.1592,
        "meta_mean_anomaly": 110.9014,
        "meta_ephemeris_type": 0,
        "meta_classification_type": "U",
        "meta_norad_cat_id": 58662,
        "meta_element_set_no": 999,
        "meta_rev_at_epoch": 10939,
        "meta_bstar": 0.00028049931,
        "meta_mean_motion_dot": 8.489e-05,
        "meta_mean_motion_ddot": 0,
        "tle_line1": "1 58662U 23208C   25349.34352027  .00008489  00000+0  28050-3 0  9997",
        "tle_line2": "2 58662  97.4372 102.7455 0005940 249.1592 110.9014 15.31611937109390"
      },
      "geometry": {
        "type": "Point",
        "coordinates": [
          25.42888280481333,
          82.39111233520065
        ]
      }
    },
    {
      "type": "Feature",
      "properties": {
        "norad_id": 58663,
        "name": "TIANMU-1 22",
        "group": "weather",
        "lat": -34.645809520930115,
        "lon": 106.21517904890462,
        "alt_km": 488.04483132524456,
        "timestamp": "2025-12-15T22:44:28.564059+00:00",
        "meta_object_name": "TIANMU-1 22",
        "meta_object_id": "2023-208D",
        "meta_epoch": "2025-12-15T07:10:25.075776",
        "meta_mean_motion": 15.27652207,
        "meta_eccentricity": 0.00026718,
        "meta_inclination": 97.4379,
        "meta_ra_of_asc_node": 100.3886,
        "meta_arg_of_pericenter": 273.5768,
        "meta_mean_anomaly": 86.5166,
        "meta_ephemeris_type": 0,
        "meta_classification_type": "U",
        "meta_norad_cat_id": 58663,
        "meta_element_set_no": 999,
        "meta_rev_at_epoch": 10922,
        "meta_bstar": 0.00023156075,
        "meta_mean_motion_dot": 6.184e-05,
        "meta_mean_motion_ddot": 0,
        "tle_line1": "1 58663U 23208D   25349.29890134  .00006184  00000+0  23156-3 0  9990",
        "tle_line2": "2 58663  97.4379 100.3886 0002671 273.5768  86.5166 15.27652207109222"
      },
      "geometry": {
        "type": "Point",
        "coordinates": [
          106.21517904890462,
          -34.645809520930115
        ]
      }
    },
    {
      "type": "Feature",
      "properties": {
        "norad_id": 58700,
        "name": "TIANMU-1 15",
        "group": "weather",
        "lat": 57.20648553209331,
        "lon": 159.66644916909675,
        "alt_km": 489.7096136300843,
        "timestamp": "2025-12-15T22:44:28.564076+00:00",
        "meta_object_name": "TIANMU-1 15",
        "meta_object_id": "2024-004A",
        "meta_epoch": "2025-12-15T11:27:39.170880",
        "meta_mean_motion": 15.24523095,
        "meta_eccentricity": 0.0005662,
        "meta_inclination": 97.4625,
        "meta_ra_of_asc_node": 170.9368,
        "meta_arg_of_pericenter": 280.1287,
        "meta_mean_anomaly": 79.9311,
        "meta_ephemeris_type": 0,
        "meta_classification_type": "U",
        "meta_norad_cat_id": 58700,
        "meta_element_set_no": 999,
        "meta_rev_at_epoch": 10776,
        "meta_bstar": 0.0001928,
        "meta_mean_motion_dot": 4.672e-05,
        "meta_mean_motion_ddot": 0,
        "tle_line1": "1 58700U 24004A   25349.47753670  .00004672  00000+0  19280-3 0  9993",
        "tle_line2": "2 58700  97.4625 170.9368 0005662 280.1287  79.9311 15.24523095107763"
      },
      "geometry": {
        "type": "Point",
        "coordinates": [
          159.66644916909675,
          57.20648553209331
        ]
      }
    }
  ]
}